CCSDS_OMM_VERS = 2.0
CREATION_DATE  = 
ORIGINATOR     = 

OBJECT_NAME    = HULIANWANG DIGUI-141
OBJECT_ID      = 2026-007E
CENTER_NAME    = EARTH
REF_FRAME      = TEME
TIME_SYSTEM    = UTC
MEAN_ELEMENT_THEORY = SGP/SGP4

EPOCH          = 2026-02-07T13:08:54.624480
MEAN_MOTION    = 13.74661753
ECCENTRICITY   = .0000432
INCLINATION    = 50.0031
RA_OF_ASC_NODE = 195.8681
ARG_OF_PERICENTER = 103.6480
MEAN_ANOMALY   = 256.4460

EPHEMERIS_TYPE = 0
CLASSIFICATION_TYPE = U
NORAD_CAT_ID   = 67439
ELEMENT_SET_NO = 999
REV_AT_EPOCH   = 346
BSTAR          = .16774E-3
MEAN_MOTION_DOT = .2E-6
MEAN_MOTION_DDOT = 0

CCSDS_OMM_VERS = 2.0
CREATION_DATE  = 
ORIGINATOR     = 

OBJECT_NAME    = HULIANWANG DIGUI-142
OBJECT_ID      = 2026-007F
CENTER_NAME    = EARTH
REF_FRAME      = TEME
TIME_SYSTEM    = UTC
MEAN_ELEMENT_THEORY = SGP/SGP4

EPOCH          = 2026-02-07T09:34:50.875680
MEAN_MOTION    = 13.75320254
ECCENTRICITY   = .0001575
INCLINATION    = 50.0103
RA_OF_ASC_NODE = 196.4425
ARG_OF_PERICENTER = 349.9268
MEAN_ANOMALY   = 10.1593

EPHEMERIS_TYPE = 0
CLASSIFICATION_TYPE = U
NORAD_CAT_ID   = 67440
ELEMENT_SET_NO = 999
REV_AT_EPOCH   = 344
BSTAR          = .11054E-4
MEAN_MOTION_DOT = -.13E-5
MEAN_MOTION_DDOT = 0

CCSDS_OMM_VERS = 2.0
CREATION_DATE  = 
ORIGINATOR     = 

OBJECT_NAME    = HULIANWANG DIGUI-143
OBJECT_ID      = 2026-007G
CENTER_NAME    = EARTH
REF_FRAME      = TEME
TIME_SYSTEM    = UTC
MEAN_ELEMENT_THEORY = SGP/SGP4

EPOCH          = 2026-02-07T14:43:52.402080
MEAN_MOTION    = 13.75018638
ECCENTRICITY   = .0002397
INCLINATION    = 50.0040
RA_OF_ASC_NODE = 195.5696
ARG_OF_PERICENTER = 180.3309
MEAN_ANOMALY   = 179.7582

EPHEMERIS_TYPE = 0
CLASSIFICATION_TYPE = U
NORAD_CAT_ID   = 67441
ELEMENT_SET_NO = 999
REV_AT_EPOCH   = 347
BSTAR          = .16749E-3
MEAN_MOTION_DOT = .2E-6
MEAN_MOTION_DDOT = 0

CCSDS_OMM_VERS = 2.0
CREATION_DATE  = 
ORIGINATOR     = 

OBJECT_NAME    = HULIANWANG DIGUI-144
OBJECT_ID      = 2026-007H
CENTER_NAME    = EARTH
REF_FRAME      = TEME
TIME_SYSTEM    = UTC
MEAN_ELEMENT_THEORY = SGP/SGP4

EPOCH          = 2026-02-07T09:25:24.076128
MEAN_MOTION    = 13.75792192
ECCENTRICITY   = .0001932
INCLINATION    = 50.0090
RA_OF_ASC_NODE = 196.4111
ARG_OF_PERICENTER = 359.9166
MEAN_ANOMALY   = 0.1726

EPHEMERIS_TYPE = 0
CLASSIFICATION_TYPE = U
NORAD_CAT_ID   = 67442
ELEMENT_SET_NO = 999
REV_AT_EPOCH   = 344
BSTAR          = .15225E-3
MEAN_MOTION_DOT = .7E-7
MEAN_MOTION_DDOT = 0

CCSDS_OMM_VERS = 2.0
CREATION_DATE  = 
ORIGINATOR     = 

OBJECT_NAME    = HULIANWANG DIGUI-145
OBJECT_ID      = 2026-007J
CENTER_NAME    = EARTH
REF_FRAME      = TEME
TIME_SYSTEM    = UTC
MEAN_ELEMENT_THEORY = SGP/SGP4

EPOCH          = 2026-02-07T18:03:13.473792
MEAN_MOTION    = 13.75099186
ECCENTRICITY   = .0000908
INCLINATION    = 50.0055
RA_OF_ASC_NODE = 194.9596
ARG_OF_PERICENTER = 2.3080
MEAN_ANOMALY   = 357.7816

EPHEMERIS_TYPE = 0
CLASSIFICATION_TYPE = U
NORAD_CAT_ID   = 67443
ELEMENT_SET_NO = 999
REV_AT_EPOCH   = 349
BSTAR          = .17536E-3
MEAN_MOTION_DOT = .28E-6
MEAN_MOTION_DDOT = 0

CCSDS_OMM_VERS = 2.0
CREATION_DATE  = 
ORIGINATOR     = 

OBJECT_NAME    = CZ-8A R/B
OBJECT_ID      = 2026-007K
CENTER_NAME    = EARTH
REF_FRAME      = TEME
TIME_SYSTEM    = UTC
MEAN_ELEMENT_THEORY = SGP/SGP4

EPOCH          = 2026-02-07T18:50:53.318976
MEAN_MOTION    = 14.13552025
ECCENTRICITY   = .0092228
INCLINATION    = 50.0086
RA_OF_ASC_NODE = 190.4296
ARG_OF_PERICENTER = 169.2813
MEAN_ANOMALY   = 191.0089

EPHEMERIS_TYPE = 0
CLASSIFICATION_TYPE = U
NORAD_CAT_ID   = 67444
ELEMENT_SET_NO = 999
REV_AT_EPOCH   = 355
BSTAR          = .87117E-4
MEAN_MOTION_DOT = .17E-6
MEAN_MOTION_DDOT = 0

CCSDS_OMM_VERS = 2.0
CREATION_DATE  = 
ORIGINATOR     = 

OBJECT_NAME    = STARLINK-36542
OBJECT_ID      = 2026-008A
CENTER_NAME    = EARTH
REF_FRAME      = TEME
TIME_SYSTEM    = UTC
MEAN_ELEMENT_THEORY = SGP/SGP4

EPOCH          = 2026-02-07T20:00:03.000384
MEAN_MOTION    = 15.50727701
ECCENTRICITY   = .0000613
INCLINATION    = 43.0005
RA_OF_ASC_NODE = 15.4203
ARG_OF_PERICENTER = 268.6107
MEAN_ANOMALY   = 246.6479

EPHEMERIS_TYPE = 0
CLASSIFICATION_TYPE = U
NORAD_CAT_ID   = 67445
ELEMENT_SET_NO = 999
REV_AT_EPOCH   = 499
BSTAR          = -.42235E-2
MEAN_MOTION_DOT = -.241875E-2
MEAN_MOTION_DDOT = 0

CCSDS_OMM_VERS = 2.0
CREATION_DATE  = 
ORIGINATOR     = 

OBJECT_NAME    = STARLINK-36539
OBJECT_ID      = 2026-008B
CENTER_NAME    = EARTH
REF_FRAME      = TEME
TIME_SYSTEM    = UTC
MEAN_ELEMENT_THEORY = SGP/SGP4

EPOCH          = 2026-02-07T20:00:03.000384
MEAN_MOTION    = 15.50598396
ECCENTRICITY   = .0001169
INCLINATION    = 43.0004
RA_OF_ASC_NODE = 15.3227
ARG_OF_PERICENTER = 258.9343
MEAN_ANOMALY   = 295.6607

EPHEMERIS_TYPE = 0
CLASSIFICATION_TYPE = U
NORAD_CAT_ID   = 67446
ELEMENT_SET_NO = 999
REV_AT_EPOCH   = 499
BSTAR          = -.13555E-2
MEAN_MOTION_DOT = -.79115E-3
MEAN_MOTION_DDOT = 0

CCSDS_OMM_VERS = 2.0
CREATION_DATE  = 
ORIGINATOR     = 

OBJECT_NAME    = STARLINK-36440
OBJECT_ID      = 2026-008C
CENTER_NAME    = EARTH
REF_FRAME      = TEME
TIME_SYSTEM    = UTC
MEAN_ELEMENT_THEORY = SGP/SGP4

EPOCH          = 2026-02-07T20:00:03.000384
MEAN_MOTION    = 15.58429282
ECCENTRICITY   = .0001312
INCLINATION    = 43.0001
RA_OF_ASC_NODE = 14.9742
ARG_OF_PERICENTER = 256.3860
MEAN_ANOMALY   = 79.7264

EPHEMERIS_TYPE = 0
CLASSIFICATION_TYPE = U
NORAD_CAT_ID   = 67447
ELEMENT_SET_NO = 999
REV_AT_EPOCH   = 499
BSTAR          = -.29657E-1
MEAN_MOTION_DOT = -.2070102E-1
MEAN_MOTION_DDOT = 0

CCSDS_OMM_VERS = 2.0
CREATION_DATE  = 
ORIGINATOR     = 

OBJECT_NAME    = STARLINK-36423
OBJECT_ID      = 2026-008D
CENTER_NAME    = EARTH
REF_FRAME      = TEME
TIME_SYSTEM    = UTC
MEAN_ELEMENT_THEORY = SGP/SGP4

EPOCH          = 2026-02-07T20:00:03.000384
MEAN_MOTION    = 15.50658981
ECCENTRICITY   = .0001661
INCLINATION    = 43.0003
RA_OF_ASC_NODE = 15.5351
ARG_OF_PERICENTER = 255.5360
MEAN_ANOMALY   = 212.7924

EPHEMERIS_TYPE = 0
CLASSIFICATION_TYPE = U
NORAD_CAT_ID   = 67448
ELEMENT_SET_NO = 999
REV_AT_EPOCH   = 499
BSTAR          = -.28089E-2
MEAN_MOTION_DOT = -.162226E-2
MEAN_MOTION_DDOT = 0

CCSDS_OMM_VERS = 2.0
CREATION_DATE  = 
ORIGINATOR     = 

OBJECT_NAME    = STARLINK-36519
OBJECT_ID      = 2026-008E
CENTER_NAME    = EARTH
REF_FRAME      = TEME
TIME_SYSTEM    = UTC
MEAN_ELEMENT_THEORY = SGP/SGP4

EPOCH          = 2026-02-07T20:00:03.000384
MEAN_MOTION    = 15.55676445
ECCENTRICITY   = .0001342
INCLINATION    = 43.0003
RA_OF_ASC_NODE = 15.0603
ARG_OF_PERICENTER = 253.6050
MEAN_ANOMALY   = 46.8232

EPHEMERIS_TYPE = 0
CLASSIFICATION_TYPE = U
NORAD_CAT_ID   = 67449
ELEMENT_SET_NO = 999
REV_AT_EPOCH   = 499
BSTAR          = -.32676E-1
MEAN_MOTION_DOT = -.2057157E-1
MEAN_MOTION_DDOT = 0

CCSDS_OMM_VERS = 2.0
CREATION_DATE  = 
ORIGINATOR     = 

OBJECT_NAME    = STARLINK-36525
OBJECT_ID      = 2026-008F
CENTER_NAME    = EARTH
REF_FRAME      = TEME
TIME_SYSTEM    = UTC
MEAN_ELEMENT_THEORY = SGP/SGP4

EPOCH          = 2026-02-07T20:00:03.000384
MEAN_MOTION    = 15.50688916
ECCENTRICITY   = .000158
INCLINATION    = 43.0003
RA_OF_ASC_NODE = 15.4041
ARG_OF_PERICENTER = 264.3015
MEAN_ANOMALY   = 256.6049

EPHEMERIS_TYPE = 0
CLASSIFICATION_TYPE = U
NORAD_CAT_ID   = 67450
ELEMENT_SET_NO = 999
REV_AT_EPOCH   = 499
BSTAR          = -.4622E-2
MEAN_MOTION_DOT = -.263606E-2
MEAN_MOTION_DDOT = 0

CCSDS_OMM_VERS = 2.0
CREATION_DATE  = 
ORIGINATOR     = 

OBJECT_NAME    = STARLINK-36511
OBJECT_ID      = 2026-008G
CENTER_NAME    = EARTH
REF_FRAME      = TEME
TIME_SYSTEM    = UTC
MEAN_ELEMENT_THEORY = SGP/SGP4

EPOCH          = 2026-02-07T20:00:03.000384
MEAN_MOTION    = 15.50596346
ECCENTRICITY   = .0001416
INCLINATION    = 43.0002
RA_OF_ASC_NODE = 15.5076
ARG_OF_PERICENTER = 265.3854
MEAN_ANOMALY   = 213.8630

EPHEMERIS_TYPE = 0
CLASSIFICATION_TYPE = U
NORAD_CAT_ID   = 67451
ELEMENT_SET_NO = 999
REV_AT_EPOCH   = 499
BSTAR          = -.12313E-2
MEAN_MOTION_DOT = -.71961E-3
MEAN_MOTION_DDOT = 0

CCSDS_OMM_VERS = 2.0
CREATION_DATE  = 
ORIGINATOR     = 

OBJECT_NAME    = STARLINK-36524
OBJECT_ID      = 2026-008H
CENTER_NAME    = EARTH
REF_FRAME      = TEME
TIME_SYSTEM    = UTC
MEAN_ELEMENT_THEORY = SGP/SGP4

EPOCH          = 2026-02-07T20:00:03.000384
MEAN_MOTION    = 15.50598037
ECCENTRICITY   = .0001308
INCLINATION    = 43.0003
RA_OF_ASC_NODE = 15.3555
ARG_OF_PERICENTER = 264.2027
MEAN_ANOMALY   = 276.2768

EPHEMERIS_TYPE = 0
CLASSIFICATION_TYPE = U
NORAD_CAT_ID   = 67452
ELEMENT_SET_NO = 999
REV_AT_EPOCH   = 499
BSTAR          = -.13466E-2
MEAN_MOTION_DOT = -.78602E-3
MEAN_MOTION_DDOT = 0

CCSDS_OMM_VERS = 2.0
CREATION_DATE  = 
ORIGINATOR     = 

OBJECT_NAME    = STARLINK-36518
OBJECT_ID      = 2026-008J
CENTER_NAME    = EARTH
REF_FRAME      = TEME
TIME_SYSTEM    = UTC
MEAN_ELEMENT_THEORY = SGP/SGP4

EPOCH          = 2026-02-07T20:00:03.000384
MEAN_MOTION    = 15.51073669
ECCENTRICITY   = .0000973
INCLINATION    = 42.9995
RA_OF_ASC_NODE = 14.8536
ARG_OF_PERICENTER = 241.6313
MEAN_ANOMALY   = 136.9698

EPHEMERIS_TYPE = 0
CLASSIFICATION_TYPE = U
NORAD_CAT_ID   = 67453
ELEMENT_SET_NO = 999
REV_AT_EPOCH   = 501
BSTAR          = -.13465E-1
MEAN_MOTION_DOT = -.74264E-2
MEAN_MOTION_DDOT = 0

